{"type": "FeatureCollection", "features": [ {"type": "Feature", "properties": {"norad_id": 36073, "name": "COSMOS 2251 DEB", "group": "cosmos-2251-debris", "lat": -37.975900658801734, "lon": 151.58451325801644, "alt_km": 797.8948504924392, "timestamp": "2025-12-14T20:40:32.170159+00:00", "meta": {"OBJECT_NAME": "COSMOS 2251 DEB", "OBJECT_ID": "1993-036AYL", "EPOCH": "2025-12-14T06:16:10.983072", "MEAN_MOTION": 14.34955439, "ECCENTRICITY": 0.00239275, "INCLINATION": 74.0321, "RA_OF_ASC_NODE": 319.7693, "ARG_OF_PERICENTER": 27.306, "MEAN_ANOMALY": 332.9344, "EPHEMERIS_TYPE": 0, "CLASSIFICATION_TYPE": "U", "NORAD_CAT_ID": 36073, "ELEMENT_SET_NO": 999, "REV_AT_EPOCH": 70229, "BSTAR": 0.0003171948, "MEAN_MOTION_DOT": 8.79e-06, "MEAN_MOTION_DDOT": 0}, "tle": {"line1": "1 36073U 93036AYL 25348.26123823  .00000879  00000+0  31719-3 0  9996", "line2": "2 36073  74.0321 319.7693 0023927  27.3060 332.9344 14.34955439702292"}}, "geometry": {"type": "Point", "coordinates": [151.58451325801644, -37.975900658801734]}}, {"type": "Feature", "properties": {"norad_id": 36074, "name": "COSMOS 2251 DEB", "group": "cosmos-2251-debris", "lat": 59.84822183946633, "lon": 6.1566580220766065, "alt_km": 710.5524895160215, "timestamp": "2025-12-14T20:40:32.170181+00:00", "meta": {"OBJECT_NAME": "COSMOS 2251 DEB", "OBJECT_ID": "1993-036AYM", "EPOCH": "2025-12-04T07:35:54.379968", "MEAN_MOTION": 14.43651509, "ECCENTRICITY": 0.0041318, "INCLINATION": 73.9929, "RA_OF_ASC_NODE": 356.1864, "ARG_OF_PERICENTER": 90.6412, "MEAN_ANOMALY": 269.9479, "EPHEMERIS_TYPE": 0, "CLASSIFICATION_TYPE": "U", "NORAD_CAT_ID": 36074, "ELEMENT_SET_NO": 999, "REV_AT_EPOCH": 85788, "BSTAR": 0.0017767, "MEAN_MOTION_DOT": 6.071e-05, "MEAN_MOTION_DDOT": 0}, "tle": {"line1": "1 36074U 93036AYM 25338.31660162  .00006071  00000+0  17767-2 0  9990", "line2": "2 36074  73.9929 356.1864 0041318  90.6412 269.9479 14.43651509857883"}}, "geometry": {"type": "Point", "coordinates": [6.1566580220766065, 59.84822183946633]}}, {"type": "Feature", "properties": {"norad_id": 36366, "name": "COSMOS 2251 DEB", "group": "cosmos-2251-debris", "lat": -71.58534799883246, "lon": -149.91152183542934, "alt_km": 725.1970059314544, "timestamp": "2025-12-14T20:40:32.170191+00:00", "meta": {"OBJECT_NAME": "COSMOS 2251 DEB", "OBJECT_ID": "1993-036AYT", "EPOCH": "2025-12-11T12:38:43.259712", "MEAN_MOTION": 14.33372709, "ECCENTRICITY": 0.00908134, "INCLINATION": 74.0648, "RA_OF_ASC_NODE": 275.2795, "ARG_OF_PERICENTER": 303.7675, "MEAN_ANOMALY": 55.4849, "EPHEMERIS_TYPE": 0, "CLASSIFICATION_TYPE": "U", "NORAD_CAT_ID": 36366, "ELEMENT_SET_NO": 999, "REV_AT_EPOCH": 86271, "BSTAR": 0.0030636872, "MEAN_MOTION_DOT": 8.83e-05, "MEAN_MOTION_DDOT": 0}, "tle": {"line1": "1 36366U 93036AYT 25345.52688958  .00008830  00000+0  30637-2 0  9994", "line2": "2 36366  74.0648 275.2795 0090813 303.7675  55.4849 14.33372709862712"}}, "geometry": {"type": "Point", "coordinates": [-149.91152183542934, -71.58534799883246]}}, {"type": "Feature", "properties": {"norad_id": 36367, "name": "COSMOS 2251 DEB", "group": "cosmos-2251-debris", "lat": -40.21918981999381, "lon": -146.1024738108631, "alt_km": 764.1333337351452, "timestamp": "2025-12-14T20:40:32.170201+00:00", "meta": {"OBJECT_NAME": "COSMOS 2251 DEB", "OBJECT_ID": "1993-036AYU", "EPOCH": "2025-12-11T01:04:58.660896", "MEAN_MOTION": 13.86314595, "ECCENTRICITY": 0.02625211, "INCLINATION": 74.1007, "RA_OF_ASC_NODE": 234.2792, "ARG_OF_PERICENTER": 307.5422, "MEAN_ANOMALY": 50.2108, "EPHEMERIS_TYPE": 0, "CLASSIFICATION_TYPE": "U", "NORAD_CAT_ID": 36367, "ELEMENT_SET_NO": 999, "REV_AT_EPOCH": 57506, "BSTAR": 0.0022824489, "MEAN_MOTION_DOT": 3.437e-05, "MEAN_MOTION_DDOT": 0}, "tle": {"line1": "1 36367U 93036AYU 25345.04512339  .00003437  00000+0  22824-2 0  9998", "line2": "2 36367  74.1007 234.2792 0262521 307.5422  50.2108 13.86314595575060"}}, "geometry": {"type": "Point", "coordinates": [-146.1024738108631, -40.21918981999381]}}, {"type": "Feature", "properties": {"norad_id": 36369, "name": "COSMOS 2251 DEB", "group": "cosmos-2251-debris", "lat": 59.18679255422475, "lon": 95.28338084391746, "alt_km": 642.1811323772163, "timestamp": "2025-12-14T20:40:32.170211+00:00", "meta": {"OBJECT_NAME": "COSMOS 2251 DEB", "OBJECT_ID": "1993-036AYW", "EPOCH": "2025-12-13T11:48:09.562176", "MEAN_MOTION": 14.73593845, "ECCENTRICITY": 0.00111215, "INCLINATION": 74.0315, "RA_OF_ASC_NODE": 69.2624, "ARG_OF_PERICENTER": 147.3699, "MEAN_ANOMALY": 212.8163, "EPHEMERIS_TYPE": 0, "CLASSIFICATION_TYPE": "U", "NORAD_CAT_ID": 36369, "ELEMENT_SET_NO": 999, "REV_AT_EPOCH": 85933, "BSTAR": 0.0023523772, "MEAN_MOTION_DOT": 0.00015337, "MEAN_MOTION_DDOT": 0}, "tle": {"line1": "1 36369U 93036AYW 25347.49177734  .00015337  00000+0  23524-2 0  9997", "line2": "2 36369  74.0315  69.2624 0011121 147.3699 212.8163 14.73593845859333"}}, "geometry": {"type": "Point", "coordinates": [95.28338084391746, 59.18679255422475]}}, {"type": "Feature", "properties": {"norad_id": 36371, "name": "COSMOS 2251 DEB", "group": "cosmos-2251-debris", "lat": -46.648790028267584, "lon": 139.7317342875375, "alt_km": 668.3015084336421, "timestamp": "2025-12-14T20:40:32.170221+00:00", "meta": {"OBJECT_NAME": "COSMOS 2251 DEB", "OBJECT_ID": "1993-036AYY", "EPOCH": "2025-12-13T04:05:01.207968", "MEAN_MOTION": 14.70618704, "ECCENTRICITY": 0.00096817, "INCLINATION": 74.0127, "RA_OF_ASC_NODE": 160.6969, "ARG_OF_PERICENTER": 198.9381, "MEAN_ANOMALY": 161.1432, "EPHEMERIS_TYPE": 0, "CLASSIFICATION_TYPE": "U", "NORAD_CAT_ID": 36371, "ELEMENT_SET_NO": 999, "REV_AT_EPOCH": 71451, "BSTAR": 0.0027229729, "MEAN_MOTION_DOT": 0.00016584, "MEAN_MOTION_DDOT": 0}, "tle": {"line1": "1 36371U 93036AYY 25347.17015287  .00016584  00000+0  27230-2 0  9992", "line2": "2 36371  74.0127 160.6969 0009681 198.9381 161.1432 14.70618704714517"}}, "geometry": {"type": "Point", "coordinates": [139.7317342875375, -46.648790028267584]}}, {"type": "Feature", "properties": {"norad_id": 36379, "name": "COSMOS 2251 DEB", "group": "cosmos-2251-debris", "lat": -28.857788464228634, "lon": 132.01298922241162, "alt_km": 800.8796765216111, "timestamp": "2025-12-14T20:40:32.170231+00:00", "meta": {"OBJECT_NAME": "COSMOS 2251 DEB", "OBJECT_ID": "1993-036AZG", "EPOCH": "2025-12-13T03:39:01.651680", "MEAN_MOTION": 14.36079534, "ECCENTRICITY": 0.00446264, "INCLINATION": 74.0126, "RA_OF_ASC_NODE": 306.0647, "ARG_OF_PERICENTER": 74.8853, "MEAN_ANOMALY": 301.0382, "EPHEMERIS_TYPE": 0, "CLASSIFICATION_TYPE": "U", "NORAD_CAT_ID": 36379, "ELEMENT_SET_NO": 999, "REV_AT_EPOCH": 64834, "BSTAR": 0.00045338854, "MEAN_MOTION_DOT": 1.309e-05, "MEAN_MOTION_DDOT": 0}, "tle": {"line1": "1 36379U 93036AZG 25347.15210245  .00001309  00000+0  45339-3 0  9999", "line2": "2 36379  74.0126 306.0647 0044626  74.8853 301.0382 14.36079534648347"}}, "geometry": {"type": "Point", "coordinates": [132.01298922241162, -28.857788464228634]}}, {"type": "Feature", "properties": {"norad_id": 36385, "name": "COSMOS 2251 DEB", "group": "cosmos-2251-debris", "lat": 71.65504452233307, "lon": -149.4864720980502, "alt_km": 688.9369570383724, "timestamp": "2025-12-14T20:40:32.170243+00:00", "meta": {"OBJECT_NAME": "COSMOS 2251 DEB", "OBJECT_ID": "1993-036AZN", "EPOCH": "2025-12-13T19:51:19.110528", "MEAN_MOTION": 14.72595598, "ECCENTRICITY": 0.01412817, "INCLINATION": 73.9691, "RA_OF_ASC_NODE": 152.4115, "ARG_OF_PERICENTER": 326.5773, "MEAN_ANOMALY": 32.6538, "EPHEMERIS_TYPE": 0, "CLASSIFICATION_TYPE": "U", "NORAD_CAT_ID": 36385, "ELEMENT_SET_NO": 999, "REV_AT_EPOCH": 85118, "BSTAR": 0.0015120007, "MEAN_MOTION_DOT": 0.00011254, "MEAN_MOTION_DDOT": 0}, "tle": {"line1": "1 36385U 93036AZN 25347.82730452  .00011254  00000+0  15120-2 0  9991", "line2": "2 36385  73.9691 152.4115 0141281 326.5773  32.6538 14.72595598851186"}}, "geometry": {"type": "Point", "coordinates": [-149.4864720980502, 71.65504452233307]}}, {"type": "Feature", "properties": {"norad_id": 36420, "name": "COSMOS 2251 DEB", "group": "cosmos-2251-debris", "lat": 73.1371549392471, "lon": 20.80080095356691, "alt_km": 762.8396424439588, "timestamp": "2025-12-14T20:40:32.170253+00:00", "meta": {"OBJECT_NAME": "COSMOS 2251 DEB", "OBJECT_ID": "1993-036AZT", "EPOCH": "2025-12-09T05:12:09.080064", "MEAN_MOTION": 14.36895704, "ECCENTRICITY": 0.001793, "INCLINATION": 74.0374, "RA_OF_ASC_NODE": 281.9559, "ARG_OF_PERICENTER": 10.5601, "MEAN_ANOMALY": 57.255, "EPHEMERIS_TYPE": 0, "CLASSIFICATION_TYPE": "U", "NORAD_CAT_ID": 36420, "ELEMENT_SET_NO": 999, "REV_AT_EPOCH": 84986, "BSTAR": 0.00029505, "MEAN_MOTION_DOT": 8.48e-06, "MEAN_MOTION_DDOT": 0}, "tle": {"line1": "1 36420U 93036AZT 25343.21677176  .00000848  00000+0  29505-3 0  9993", "line2": "2 36420  74.0374 281.9559 0017930  10.5601  57.2550 14.36895704849860"}}, "geometry": {"type": "Point", "coordinates": [20.80080095356691, 73.1371549392471]}}, {"type": "Feature", "properties": {"norad_id": 36430, "name": "COSMOS 2251 DEB", "group": "cosmos-2251-debris", "lat": 44.61282611394245, "lon": 121.1213820331662, "alt_km": 856.9683840878533, "timestamp": "2025-12-14T20:40:32.170264+00:00", "meta": {"OBJECT_NAME": "COSMOS 2251 DEB", "OBJECT_ID": "1993-036BAD", "EPOCH": "2025-12-07T15:14:59.696160", "MEAN_MOTION": 14.27773173, "ECCENTRICITY": 0.00973352, "INCLINATION": 74.0036, "RA_OF_ASC_NODE": 117.7938, "ARG_OF_PERICENTER": 268.8676, "MEAN_ANOMALY": 90.1319, "EPHEMERIS_TYPE": 0, "CLASSIFICATION_TYPE": "U", "NORAD_CAT_ID": 36430, "ELEMENT_SET_NO": 999, "REV_AT_EPOCH": 64484, "BSTAR": 0.00083938099, "MEAN_MOTION_DOT": 2.154e-05, "MEAN_MOTION_DDOT": 0}, "tle": {"line1": "1 36430U 93036BAD 25341.63541315  .00002154  00000+0  83938-3 0  9995", "line2": "2 36430  74.0036 117.7938 0097335 268.8676  90.1319 14.27773173644845"}}, "geometry": {"type": "Point", "coordinates": [121.1213820331662, 44.61282611394245]}}]}